0 ERS 1
1 21574U 91050A   13283.47688464  .00000326  00000-0  12438-3 0  7505
2 21574 098.2809 245.3394 0033915 023.2005 124.2234 14.36479482164298
0 ERS 1
1 21574U 91050A   13285.82732182  .00000329  00000-0  12559-3 0  7522
2 21574 098.2813 247.5996 0033759 016.2449 039.0167 14.36480974164639
0 ERS 1
1 21574U 91050A   13286.94047788  .00000362  00000-0  13677-3 0  7537
2 21574 098.2815 248.6700 0033688 012.9660 035.4596 14.36481797164792
0 ERS 1
1 21574U 91050A   13287.98348206  .00000402  00000-0  15031-3 0  7543
2 21574 098.2819 249.6729 0033619 009.8056 029.2187 14.36483333164948
0 ERS 1
1 21574U 91050A   13289.46749757  .00000379  00000-0  14251-3 0  7551
2 21574 098.2824 251.0999 0033514 005.3249 143.6040 14.36485397165154
0 ERS 1
1 21574U 91050A   13290.50898134  .00000442  00000-0  16388-3 0  7567
2 21574 098.2826 252.1015 0033444 002.2198 129.4635 14.36486353165300
0 ERS 1
1 21574U 91050A   13291.55218779  .00000463  00000-0  17087-3 0  7575
2 21574 098.2828 253.1048 0033376 359.0796 124.2665 14.36487350165450
0 ERS 1
1 21574U 91050A   13292.79357421  .00000571  00000-0  20765-3 0  7588
2 21574 098.2830 254.2989 0033301 355.3312 063.9485 14.36488561165634
0 ERS 1
1 21574U 91050A   13293.83747240  .00000613  00000-0  22184-3 0  7591
2 21574 098.2831 255.3030 0033233 352.1248 062.4027 14.36490158165788
0 ERS 1
1 21574U 91050A   13294.94797890  .00000645  00000-0  23259-3 0  7601
2 21574 098.2832 256.3712 0033168 348.7406 045.2956 14.36491779165949
0 ERS 1
1 21574U 91050A   13295.99393106  .00000671  00000-0  24130-3 0  7618
2 21574 098.2833 257.3774 0033098 345.5599 054.3497 14.36493886166098
